NORAD_CAT_ID,OBJECT_NAME,OBJECT_TYPE,EPOCH,MEAN_MOTION,ECCENTRICITY,INCLINATION,RA_OF_ASC_NODE,ARG_OF_PERICENTER,MEAN_ANOMALY,BSTAR,MEAN_MOTION_DOT,MEAN_MOTION_DDOT,TLE_LINE0,TLE_LINE1,TLE_LINE2,SEMIMAJOR_AXIS,PERIOD,APOGEE,PERIGEE,DECAYED
53555.0,STARLINK-4504,PAYLOAD,2024-08-04 14:50:43,15.08838906,0.0001387,53.2165,157.1427,90.7995,269.3156,6.4306e-05,7.36e-06,0.0,0 STARLINK-4504,1 53555U 22101AE  24217.61856115  .00000736  00000-0  64306-4 0  9997,2 53555  53.2165 157.1427 0001387  90.7995 269.3156 15.08838906109091,6917.884,95.438,540.708,538.789,0.0
53555.0,STARLINK-4504,PAYLOAD,2024-08-04 16:26:06,15.08837502,0.0001593,53.2147,156.8456,89.9205,270.197,6.4934e-05,7.45e-06,0.0,0 STARLINK-4504,1 53555U 22101AE  24217.68480240  .00000745  00000-0  64934-4 0  9993,2 53555  53.2147 156.8456 0001593  89.9205 270.1970 15.08837502109109,6917.888,95.438,540.855,538.651,0.0
53555.0,STARLINK-4504,PAYLOAD,2024-08-05 03:33:48,15.0885079,0.00014,53.2154,154.7619,91.948,268.1672,0.00015544,2.187e-05,0.0,0 STARLINK-4504,1 53555U 22101AE  24218.14847263  .00002187  00000-0  15544-3 0  9991,2 53555  53.2154 154.7619 0001400  91.9480 268.1672 15.08850790108514,6917.847,95.437,540.681,538.744,0.0
53555.0,STARLINK-4504,PAYLOAD,2024-08-05 13:06:05,15.08867585,0.0001752,53.2161,152.9785,66.3477,293.7699,0.00030551,4.581e-05,0.0,0 STARLINK-4504,1 53555U 22101AE  24218.54590063  .00004581  00000-0  30551-3 0  9993,2 53555  53.2161 152.9785 0001752  66.3477 293.7699 15.08867585108577,6917.796,95.436,540.873,538.449,0.0
53555.0,STARLINK-4504,PAYLOAD,2024-08-05 21:03:04,15.08805976,0.0001443,53.2166,151.49,71.4112,288.7037,-0.00033734,-5.648e-05,0.0,0 STARLINK-4504,1 53555U 22101AE  24218.87713340 -.00005648  00000-0 -33734-3 0  9997,2 53555  53.2166 151.4900 0001443  71.4112 288.7037 15.08805976108627,6917.984,95.44,540.848,538.851,0.0
53555.0,STARLINK-4504,PAYLOAD,2024-08-06 04:59:59,15.08817061,0.0001358,53.2161,149.9989,86.0026,274.1121,-0.0002392,-4.09e-05,0.0,0 STARLINK-4504,1 53555U 22101AE  24219.20833168 -.00004090  00000-0 -23920-3 0  9992,2 53555  53.2161 149.9989 0001358  86.0026 274.1121 15.08817061108678,6917.951,95.439,540.755,538.876,0.0
53555.0,STARLINK-4504,PAYLOAD,2024-08-06 12:56:55,15.08824788,0.0001418,53.217,148.5176,90.7357,269.3798,-8.6227e-05,-1.659e-05,0.0,0 STARLINK-4504,1 53555U 22101AE  24219.53953257 -.00001659  00000-0 -86227-4 0  9998,2 53555  53.2170 148.5176 0001418  90.7357 269.3798 15.08824788108723,6917.927,95.439,540.773,538.811,0.0
53555.0,STARLINK-4504,PAYLOAD,2024-08-06 19:18:27,15.08832492,0.0001335,53.2153,147.3298,61.4939,298.6187,0.00013592,1.875e-05,0.0,0 STARLINK-4504,1 53555U 22101AE  24219.80449049  .00001875  00000-0  13592-3 0  9999,2 53555  53.2153 147.3298 0001335  61.4939 298.6187 15.08832492109421,6917.903,95.438,540.692,538.845,0.0
53555.0,STARLINK-4504,PAYLOAD,2024-08-07 01:40:00,15.08847763,0.0001603,53.2154,146.14,76.6909,283.4262,0.00041831,6.377e-05,0.0,0 STARLINK-4504,1 53555U 22101AE  24220.06944523  .00006377  00000-0  41831-3 0  9995,2 53555  53.2154 146.1400 0001603  76.6909 283.4262 15.08847763108801,6917.857,95.437,540.831,538.613,0.0
53555.0,STARLINK-4504,PAYLOAD,2024-08-08 04:41:32,15.08849803,0.0001388,53.2172,141.0765,132.7577,227.3532,0.00015859,2.238e-05,0.0,0 STARLINK-4504,1 53555U 22101AE  24221.19551748  .00002238  00000-0  15859-3 0  9996,2 53555  53.2172 141.0765 0001388 132.7577 227.3532 15.08849803109630,6917.85,95.437,540.676,538.755,0.0
53555.0,STARLINK-4504,PAYLOAD,2024-08-08 22:10:47,15.08844492,0.000147,53.2167,137.8069,108.4916,251.6236,-1.7011e-05,-5.59e-06,0.0,0 STARLINK-4504,1 53555U 22101AE  24221.92415885 -.00000559  00000-0 -17011-4 0  9997,2 53555  53.2167 137.8069 0001470 108.4916 251.6236 15.08844492109745,6917.867,95.437,540.749,538.715,0.0
53555.0,STARLINK-4504,PAYLOAD,2024-08-09 04:32:19,15.08850468,0.0001264,53.2158,136.6195,77.278,282.8353,-2.5134e-05,-6.88e-06,0.0,0 STARLINK-4504,1 53555U 22101AE  24222.18911958 -.00000688  00000-0 -25134-4 0  9996,2 53555  53.2158 136.6195 0001264  77.2780 282.8353 15.08850468109123,6917.848,95.437,540.588,538.839,0.0
53555.0,STARLINK-4504,PAYLOAD,2024-08-09 10:53:51,15.08867127,0.0001593,53.2191,135.4361,77.3557,282.7613,6.7383e-06,-1.81e-06,0.0,0 STARLINK-4504,1 53555U 22101AE  24222.45406336 -.00000181  00000-0  67383-5 0  9995,2 53555  53.2191 135.4361 0001593  77.3557 282.7613 15.08867127109162,6917.797,95.436,540.764,538.56,0.0
53555.0,STARLINK-4504,PAYLOAD,2024-08-09 18:50:50,15.08809405,9.91e-05,53.2141,133.9441,81.2312,278.8793,-0.00015959,-2.824e-05,0.0,0 STARLINK-4504,1 53555U 22101AE  24222.78530495 -.00002824  00000-0 -15959-3 0  9992,2 53555  53.2141 133.9441 0000991  81.2312 278.8793 15.08809405109219,6917.974,95.439,540.524,539.153,0.0
53555.0,STARLINK-4504,PAYLOAD,2024-08-09 22:01:35,15.08833679,0.0001629,53.2161,133.355,93.6246,266.4932,-0.00016048,-2.841e-05,0.0,0 STARLINK-4504,1 53555U 22101AE  24222.91777310 -.00002841  00000-0 -16048-3 0  9995,2 53555  53.2161 133.3550 0001629  93.6246 266.4932 15.08833679109890,6917.9,95.438,540.892,538.638,0.0
53555.0,STARLINK-4504,PAYLOAD,2024-08-10 01:12:21,15.08838073,0.0001167,53.2144,132.7546,80.822,279.2904,8.4777e-05,1.062e-05,0.0,0 STARLINK-4504,1 53555U 22101AE  24223.05024435  .00001062  00000-0  84777-4 0  9991,2 53555  53.2144 132.7546 0001167  80.8220 279.2904 15.08838073109250,6917.886,95.438,540.559,538.944,0.0
53555.0,STARLINK-4504,PAYLOAD,2024-08-10 21:52:22,15.08838007,0.000116,53.2149,128.8896,90.7515,269.361,5.1772e-05,5.36e-06,0.0,0 STARLINK-4504,1 53555U 22101AE  24223.91136791  .00000536  00000-0  51772-4 0  9999,2 53555  53.2149 128.8896 0001160  90.7515 269.3610 15.08838007110049,6917.886,95.438,540.554,538.949,0.0
53555.0,STARLINK-4504,PAYLOAD,2024-08-11 02:38:31,15.08843878,0.0001279,53.2152,127.9967,80.0252,280.0884,0.00013021,1.785e-05,0.0,0 STARLINK-4504,1 53555U 22101AE  24224.11008345  .00001785  00000-0  13021-3 0  9996,2 53555  53.2152 127.9967 0001279  80.0252 280.0884 15.08843878109417,6917.869,95.437,540.618,538.849,0.0
53555.0,STARLINK-4504,PAYLOAD,2024-08-11 10:35:26,15.08862831,0.0002189,53.215,126.5116,71.3794,288.7435,0.0003834,5.823e-05,0.0,0 STARLINK-4504,1 53555U 22101AE  24224.44127472  .00005823  00000-0  38340-3 0  9993,2 53555  53.2150 126.5116 0002189  71.3794 288.7435 15.08862831109463,6917.811,95.436,541.19,538.161,0.0
53555.0,STARLINK-4504,PAYLOAD,2024-08-11 21:43:09,15.08825135,0.0001501,53.2144,124.4334,92.384,267.7324,8.0255e-05,9.89e-06,0.0,0 STARLINK-4504,1 53555U 22101AE  24224.90497345  .00000989  00000-0  80255-4 0  9994,2 53555  53.2144 124.4334 0001501  92.3840 267.7324 15.08825135110199,6917.926,95.438,540.829,538.752,0.0
53555.0,STARLINK-4504,PAYLOAD,2024-08-12 02:29:17,15.08852589,0.0001219,53.2153,123.5348,107.4104,252.7021,0.00037734,5.725e-05,0.0,0 STARLINK-4504,1 53555U 22101AE  24225.10367884  .00005725  00000-0  37734-3 0  9997,2 53555  53.2153 123.5348 0001219 107.4104 252.7021 15.08852589109561,6917.842,95.437,540.55,538.864,0.0
53555.0,STARLINK-4504,PAYLOAD,2024-08-12 23:09:18,15.08856573,0.0001719,53.2161,119.6724,78.6405,281.478,0.00019691,2.849e-05,0.0,0 STARLINK-4504,1 53555U 22101AE  24225.96479464  .00002849  00000-0  19691-3 0  9995,2 53555  53.2161 119.6724 0001719  78.6405 281.4780 15.08856573110359,6917.83,95.437,540.884,538.506,0.0
53555.0,STARLINK-4504,PAYLOAD,2024-08-13 00:44:43,15.08803671,0.0001467,53.2166,119.3714,80.6238,279.492,-0.00061657,-0.00010077,0.0,0 STARLINK-4504,1 53555U 22101AE  24226.03105638 -.00010077  00000-0 -61657-3 0  9996,2 53555  53.2166 119.3714 0001467  80.6238 279.4920 15.08803671109708,6917.991,95.44,540.871,538.842,0.0
53555.0,STARLINK-4504,PAYLOAD,2024-08-13 10:17:02,15.08812034,0.0001279,53.2151,117.5921,104.5723,255.5411,-0.00045174,-7.465e-05,0.0,0 STARLINK-4504,1 53555U 22101AE  24226.42850354 -.00007465  00000-0 -45174-3 0  9994,2 53555  53.2151 117.5921 0001279 104.5723 255.5411 15.08812034109767,6917.966,95.439,540.716,538.946,0.0
53555.0,STARLINK-4504,PAYLOAD,2024-08-13 23:00:07,15.08814392,9.66e-05,53.2143,115.2177,60.9207,299.1881,-8.2111e-05,-1.593e-05,0.0,0 STARLINK-4504,1 53555U 22101AE  24226.95842561 -.00001593  00000-0 -82111-4 0  9992,2 53555  53.2143 115.2177 0000966  60.9207 299.1881 15.08814392110508,6917.959,95.439,540.492,539.155,0.0
53555.0,STARLINK-4504,PAYLOAD,2024-08-14 10:07:49,15.08840252,0.0001322,53.2156,113.1313,91.2843,268.8301,0.00042711,6.516e-05,0.0,0 STARLINK-4504,1 53555U 22101AE  24227.42209813  .00006516  00000-0  42711-3 0  9991,2 53555  53.2156 113.1313 0001322  91.2843 268.8301 15.08840252109918,6917.88,95.438,540.659,538.83,0.0
53555.0,STARLINK-4504,PAYLOAD,2024-08-14 19:40:09,15.0883424,0.0001686,53.2179,111.3448,106.4341,253.6837,0.00049663,7.623e-05,0.0,0 STARLINK-4504,1 53555U 22101AE  24227.81954939  .00007623  00000-0  49663-3 0  9993,2 53555  53.2179 111.3448 0001686 106.4341 253.6837 15.08834240109979,6917.898,95.438,540.929,538.597,0.0
53555.0,STARLINK-4504,PAYLOAD,2024-08-14 22:50:55,15.08828487,0.000167,53.2181,110.7512,102.0625,258.0554,0.00046643,7.141e-05,0.0,0 STARLINK-4504,1 53555U 22101AE  24227.95203237  .00007141  00000-0  46643-3 0  9996,2 53555  53.2181 110.7512 0001670 102.0625 258.0554 15.08828487110655,6917.916,95.438,540.936,538.625,0.0
53555.0,STARLINK-4504,PAYLOAD,2024-08-15 22:41:41,15.08853574,0.0001274,53.2172,106.2945,87.7543,272.3595,0.00041615,6.344e-05,0.0,0 STARLINK-4504,1 53555U 22101AE  24228.94562096  .00006344  00000-0  41615-3 0  9995,2 53555  53.2172 106.2945 0001274  87.7543 272.3595 15.08853574110809,6917.839,95.437,540.585,538.823,0.0
53555.0,STARLINK-4504,PAYLOAD,2024-08-16 22:32:28,15.0885359,0.0001045,53.2155,101.8307,78.2878,281.8231,0.0001449,2.02e-05,0.0,0 STARLINK-4504,1 53555U 22101AE  24229.93921353  .00002020  00000-0  14490-3 0  9998,2 53555  53.2155 101.8307 0001045  78.2878 281.8231 15.08853590110298,6917.839,95.437,540.427,538.981,0.0
